[{"OBJECT_NAME":"STARLINK-34439","OBJECT_ID":"2025-130W","EPOCH":"2026-03-09T08:19:21.010944","MEAN_MOTION":15.30195423,"ECCENTRICITY":0.00013248,"INCLINATION":53.1587,"RA_OF_ASC_NODE":89.9068,"ARG_OF_PERICENTER":89.6083,"MEAN_ANOMALY":270.507,"EPHEMERIS_TYPE":0,"CLASSIFICATION_TYPE":"U","NORAD_CAT_ID":64458,"ELEMENT_SET_NO":999,"REV_AT_EPOCH":4065,"BSTAR":0.00064724443,"MEAN_MOTION_DOT":0.00018856,"MEAN_MOTION_DDOT":0},{"OBJECT_NAME":"USA 22","OBJECT_ID":"1987-043A","EPOCH":"2026-03-09T12:49:38.770464","MEAN_MOTION":14.09930808,"ECCENTRICITY":0.06945592,"INCLINATION":63.291,"RA_OF_ASC_NODE":125.356,"ARG_OF_PERICENTER":106.1549,"MEAN_ANOMALY":261.7059,"EPHEMERIS_TYPE":0,"CLASSIFICATION_TYPE":"U","NORAD_CAT_ID":17997,"ELEMENT_SET_NO":999,"REV_AT_EPOCH":9242,"BSTAR":0.00062215279,"MEAN_MOTION_DOT":0.00012639,"MEAN_MOTION_DDOT":0}]
